{"fetched_at":"2026-07-11T06:35:29.699Z","source":"https://celestrak.org/NORAD/elements/gp.php?NAME=HAWK&FORMAT=JSON","constellation":"hawkeye-360","records":[{"OBJECT_NAME":"HAWK-12A","OBJECT_ID":"2025-138C","EPOCH":"2026-07-09T20:17:33.724608","CLASSIFICATION_TYPE":"U","MEAN_MOTION":15.18380966,"ECCENTRICITY":0.00154654,"INCLINATION":97.4413,"RA_OF_ASC_NODE":193.2478,"ARG_OF_PERICENTER":63.2529,"MEAN_ANOMALY":297.0286,"EPHEMERIS_TYPE":0,"NORAD_CAT_ID":64623,"ELEMENT_SET_NO":999,"REV_AT_EPOCH":5730,"BSTAR":0.00014008886,"MEAN_MOTION_DOT":0.0000282,"MEAN_MOTION_DDOT":0},{"OBJECT_NAME":"HAWK-13A","OBJECT_ID":"2026-004AF","EPOCH":"2026-07-10T10:40:24.603744","CLASSIFICATION_TYPE":"U","MEAN_MOTION":15.19334913,"ECCENTRICITY":0.00037846,"INCLINATION":97.4443,"RA_OF_ASC_NODE":189.9847,"ARG_OF_PERICENTER":241.4342,"MEAN_ANOMALY":118.6512,"EPHEMERIS_TYPE":0,"NORAD_CAT_ID":67392,"ELEMENT_SET_NO":999,"REV_AT_EPOCH":2729,"BSTAR":0.00012884935,"MEAN_MOTION_DOT":0.00002654,"MEAN_MOTION_DDOT":0},{"OBJECT_NAME":"HAWK-13C","OBJECT_ID":"2026-004AG","EPOCH":"2026-07-10T10:40:11.654112","CLASSIFICATION_TYPE":"U","MEAN_MOTION":15.19334836,"ECCENTRICITY":0.00036505,"INCLINATION":97.459,"RA_OF_ASC_NODE":190.3995,"ARG_OF_PERICENTER":246.1019,"MEAN_ANOMALY":113.9833,"EPHEMERIS_TYPE":0,"NORAD_CAT_ID":67393,"ELEMENT_SET_NO":999,"REV_AT_EPOCH":2729,"BSTAR":0.00013441401,"MEAN_MOTION_DOT":0.00002771,"MEAN_MOTION_DDOT":0},{"OBJECT_NAME":"HAWK-13B","OBJECT_ID":"2026-004AK","EPOCH":"2026-07-10T05:55:32.787264","CLASSIFICATION_TYPE":"U","MEAN_MOTION":15.19332862,"ECCENTRICITY":0.00049387,"INCLINATION":97.4529,"RA_OF_ASC_NODE":190.0314,"ARG_OF_PERICENTER":246.884,"MEAN_ANOMALY":113.1875,"EPHEMERIS_TYPE":0,"NORAD_CAT_ID":67396,"ELEMENT_SET_NO":999,"REV_AT_EPOCH":2726,"BSTAR":0.0001351624,"MEAN_MOTION_DOT":0.00002787,"MEAN_MOTION_DDOT":0},{"OBJECT_NAME":"HAWK-14B","OBJECT_ID":"2026-067W","EPOCH":"2026-07-10T08:20:51.317088","CLASSIFICATION_TYPE":"U","MEAN_MOTION":15.18407784,"ECCENTRICITY":0.00020894,"INCLINATION":97.4553,"RA_OF_ASC_NODE":149.4671,"ARG_OF_PERICENTER":14.3097,"MEAN_ANOMALY":345.8196,"EPHEMERIS_TYPE":0,"NORAD_CAT_ID":68436,"ELEMENT_SET_NO":999,"REV_AT_EPOCH":1545,"BSTAR":0.00013991969,"MEAN_MOTION_DOT":0.0000281,"MEAN_MOTION_DDOT":0},{"OBJECT_NAME":"HAWK-14C","OBJECT_ID":"2026-067AB","EPOCH":"2026-07-10T08:20:59.985600","CLASSIFICATION_TYPE":"U","MEAN_MOTION":15.18410381,"ECCENTRICITY":0.00031028,"INCLINATION":97.4491,"RA_OF_ASC_NODE":149.3512,"ARG_OF_PERICENTER":36.7355,"MEAN_ANOMALY":323.4092,"EPHEMERIS_TYPE":0,"NORAD_CAT_ID":68441,"ELEMENT_SET_NO":999,"REV_AT_EPOCH":1545,"BSTAR":0.00014311022,"MEAN_MOTION_DOT":0.00002876,"MEAN_MOTION_DDOT":0},{"OBJECT_NAME":"HAWK-14A","OBJECT_ID":"2026-067AJ","EPOCH":"2026-07-08T23:08:21.109344","CLASSIFICATION_TYPE":"U","MEAN_MOTION":15.18397986,"ECCENTRICITY":0.00039241,"INCLINATION":97.4616,"RA_OF_ASC_NODE":148.2238,"ARG_OF_PERICENTER":32.2591,"MEAN_ANOMALY":327.8883,"EPHEMERIS_TYPE":0,"NORAD_CAT_ID":68448,"ELEMENT_SET_NO":999,"REV_AT_EPOCH":1524,"BSTAR":0.00015712151,"MEAN_MOTION_DOT":0.00003164,"MEAN_MOTION_DDOT":0}]}
